2 46130  53.0534  29.6370 0002180  81.7002 278.4234 15.06381622170532
STARLINK-1625           
1 46131U 20057Q   23257.40454936  .00007589  00000+0  52788-3 0  9994
2 46131  53.0556  49.5819 0001369  83.4740 276.6405 15.06397860170252
STARLINK-1630           
1 46132U 20057R   23257.44324728  .00004193  00000+0  30030-3 0  9998
2 46132  53.0539  69.4052 0001611  95.7044 264.4128 15.06388148169981
STARLINK-1637           
1 46133U 20057S   23257.37690538 -.00000278  00000+0  21865-6 0  9996
2 46133  53.0577  29.7082 0001049  81.8966 278.2142 15.06388841170532
STARLINK-1638           
1 46134U 20057T   23257.58335648  .01113719  00000+0  64399-2 0  9998
2 46134  53.0566  21.8340 0001291  74.0107 237.2613 15.75415811170656
STARLINK-1639           
1 46135U 20057U   23257.39533611  .00019397  00000+0  13180-2 0  9996
2 46135  53.0565  29.6186 0001661  69.2824 290.8343 15.06385617170539
STARLINK-1643           
1 46136U 20057V   23257.44786127  .00013994  00000+0  95686-3 0  9994
2 46136  53.0553  59.4242 0001432  68.6533 291.4608 15.06385329170123
STARLINK-1586           
1 46137U 20057W   23257.46352568  .00019943  00000+0  13543-2 0  9996
2 46137  53.0558  49.3158 0002299  90.8415 269.2837 15.06389873170272
STARLINK-1590           
1 46138U 20057X   23257.46167872 -.00000306  00000+0 -16551-5 0  9999
2 46138  53.0544  69.3248 0001564  98.2563 261.8603 15.06390105169985
STARLINK-1594           
1 46140U 20057Z   23256.82400310  .00030297  00000+0  20439-2 0  9995
2 46140  53.0555  32.1826 0001272  69.2312 290.8813 15.06403965171051
STARLINK-1596           
1 46141U 20057AA  23257.39902113  .00010964  00000+0  75433-3 0  9991
2 46141  53.0566  29.6083 0001339  57.3303 302.7815 15.06372805170537
STARLINK-1597           
1 46142U 20057AB  23256.68762600  .00019585  00000+0  13301-2 0  9991
2 46142  53.0539  72.7957 0001140  79.6434 280.4684 15.06399074169204
STARLINK-1606           
1 46144U 20057AD  23257.44878100  .00021976  00000+0  14899-2 0  9991
2 46144  53.0550  49.3764 0001325  80.3269 279.7870 15.06392959170277
STARLINK-1608           
1 46146U 20057AF  23256.89772239  .00007671  00000+0  53320-3 0  9996
2 46146  53.0536  71.8544 0001134  80.2745 279.8372 15.06408703169243
STARLINK-1611           
1 46147U 20057AG  23256.81295468  .00000653  00000+0  62714-4 0  9994
2 46147  53.0540  72.2341 0001430  87.9102 272.2051 15.06403565170489
STARLINK-1616           
1 46148U 20057AH  23257.41560460  .00013111  00000+0  89794-3 0  9998
2 46148  53.0551  49.5314 0001211  82.3174 277.7952 15.06379163170255
STARLINK-1620           
1 46149U 20057AJ  23257.42940386  .00020126  00000+0  13665-2 0  9996
2 46149  53.0549  49.4591 0001314  70.0448 290.0682 15.06391333170263
STARLINK-1629           
1 46150U 20057AK  23256.89403939  .00018390  00000+0  12504-2 0  9997
2 46150  53.0548  71.8714 0001343  68.6084 291.5048 15.06395048169246
STARLINK-1631           
1 46151U 20057AL  23256.80373923  .00006444  00000+0  45114-3 0  9999
2 46151  53.0552  52.2780 0001318  94.2219 265.8921 15.06396525169509
STARLINK-1634           
1 46152U 20057AM  23257.45430949  .00013490  00000+0  92308-3 0  9990
2 46152  53.0543  69.3953 0001282  93.3759 266.7376 15.06389004169980
STARLINK-1636           
1 46153U 20057AN  23257.41930354  .00009430  00000+0  65158-3 0  9994
2 46153  53.0546  49.5089 0000425  83.6373 276.4664 15.06371227170254
STARLINK-1642           
1 46154U 20057AP  23257.42942848  .00016351  00000+0  11144-2 0  9992
2 46154  53.0539  59.4682 0001126  70.2283 289.8827 15.06389126170118
STARLINK-1667           
1 46155U 20057AQ  23256.65813462  .00031044  00000+0  20939-2 0  9994
2 46155  53.0558  32.9316 0001275  60.2779 299.8337 15.06399398171002
STARLINK-1545           
1 46156U 20057AR  23257.44509418  .00020911  00000+0  14188-2 0  9996
2 46156  53.0558  49.3972 0001245  77.8292 282.2836 15.06394489170278
STARLINK-1587           
1 46157U 20057AS  23257.36584363  .00022696  00000+0  15383-2 0  9990
2 46157  53.0554  29.7505 0001050  91.6044 268.5065 15.06383939170530
STARLINK-1589           
1 46158U 20057AT  23257.36215707  .00015737  00000+0  10736-2 0  9999
2 46158  53.0547  29.7658 0000805  77.7371 282.3709 15.06380462170534
STARLINK-1595           
1 46159U 20057AU  23256.87191890  .00018857  00000+0  12817-2 0  9999
2 46159  53.0532  71.9700 0001151  74.9079 285.2037 15.06391818170493
STARLINK-1598           
1 46160U 20057AV  23257.45983829  .00019585  00000+0  13307-2 0  9991
2 46160  53.0551  49.3288 0002170  88.7306 271.3932 15.06382134170271
STARLINK-1600           
1 46161U 20057AW  23257.43770333  .00009921  00000+0  68361-3 0  9998
2 46161  53.0552  49.4326 0001263  65.3208 294.7913 15.06418908170267
STARLINK-1603           
1 46162U 20057AX  23257.44140594  .00007044  00000+0  49147-3 0  9995
2 46162  53.0540  49.4141 0001381  80.6500 279.4645 15.06385171170274
STARLINK-1610           
1 46163U 20057AY  23257.37321542  .00018075  00000+0  12298-2 0  9994
2 46163  53.0555  29.7207 0001079  95.3386 264.7726 15.06382897170532
STARLINK-1612           
1 46164U 20057AZ  23256.63971179  .00003697  00000+0  26696-3 0  9992
2 46164  53.0562  33.0138 0001579  93.7313 266.3857 15.06397472171022
STARLINK-1613           
1 46165U 20057BA  23257.29644676  .00031535  00000+0  86149-3 0  9996
2 46165  53.0616   8.4366 0002570 200.7887 159.3011 15.37146923170838
STARLINK-1615           
1 46166U 20057BB  23256.69131012  .00007808  00000+0  54232-3 0  9999
2 46166  53.0538  72.7788 0000997  86.1121 273.9982 15.06411340169216
STARLINK-1626           
1 46167U 20057BC  23256.77240504  .00021518  00000+0  14589-2 0  9990
2 46167  53.0539  72.4170 0001145  84.2954 275.8165 15.06404813169221
STARLINK-1627           
1 46168U 20057BD  23256.61852002  .00028178  00000+0  19030-2 0  9991
2 46168  53.0554  23.1948 0001359  60.1412 299.9712 15.06401400169891
STARLINK-1628           
1 46169U 20057BE  23257.45065923  .00012398  00000+0  85013-3 0  9995
2 46169  53.0539  69.7516 0001401  92.3759 267.7391 15.06384477169925
STARLINK-1633           
1 46171U 20057BG  23256.81478530  .00023371  00000+0  15830-2 0  9991
2 46171  53.0545  52.2274 0001337  65.2257 294.8871 15.06392618170767
STARLINK-1635           
1 46172U 20057BH  23256.76320384  .00023948  00000+0  16230-2 0  9994
2 46172  53.0549  52.4599 0001139  69.3030 290.8081 15.06357005170757
STARLINK-1640           
1 46173U 20057BJ  23256.87560337  .00003580  00000+0  25903-3 0  9999
2 46173  53.0538  71.9526 0000925 102.5619 257.5474 15.06406135169895
STARLINK-1641           
1 46174U 20057BK  23256.88298170  .00021983  00000+0  14903-2 0  9998
2 46174  53.0532  71.9208 0001155  75.4510 284.6607 15.06394440169233
STARLINK-1734           
1 46325U 20062A   23256.82815628  .00001603  00000+0  12647-3 0  9990
2 46325  53.0534  87.1672 0001417  90.2812 269.8339 15.06400491168711
STARLINK-1654           
1 46326U 20062B   23257.02491154  .00023263  00000+0  15730-2 0  9999
2 46326  53.0535 131.5267 0001136  98.8970 261.2147 15.06457887167683
STARLINK-1673           
1 46327U 20062C   23257.04699886  .00023976  00000+0  16209-2 0  9997
2 46327  53.0524 131.1851 0000905 132.2180 227.8885 15.06448366167685
STARLINK-1686           
1 46328U 20062D   23256.89404006  .00020169  00000+0  13676-2 0  9994
2 46328  53.0535 111.8729 0001071  76.4915 283.6193 15.06439007167760
STARLINK-1695           
1 46329U 20062E   23256.99354943  .00021811  00000+0  14762-2 0  9992
2 46329  53.0533 111.4262 0001247  92.0959 268.0173 15.06460118167957
STARLINK-1710           
1 46330U 20062F   23256.98249171  .00021008  00000+0  14228-2 0  9994
2 46330  53.0530 111.4766 0001059  85.7235 274.3875 15.06458439167785
STARLINK-1719           
1 46331U 20062G   23257.01751209  .00027829  00000+0  18767-2 0  9999
2 46331  53.0541 131.3156 0001082  91.2398 268.8715 15.06461692167685
STARLINK-1721           
1 46332U 20062H   23256.86692858  .00015165  00000+0  68022-3 0  9996
2 46332  53.0458 116.3452 0001878  97.4237 262.6972 15.21412443167705
STARLINK-1723           
1 46333U 20062J   23257.04331090  .00023129  00000+0  15643-2 0  9995
2 46333  53.0524 131.2018 0001098 118.4037 241.7062 15.06452986167684
STARLINK-1725           
1 46334U 20062K   23256.91249868  .00021946  00000+0  14855-2 0  9991
2 46334  53.0537 112.0682 0001095  83.7223 276.3891 15.06453076167765
STARLINK-1727           
1 46335U 20062L   23257.07279269  .00024816  00000+0  16758-2 0  9991
2 46335  53.0546 131.0705 0001183  95.8920 264.2204 15.06470886167693
STARLINK-1738           
1 46336U 20062M   23256.99724249  .00021122  00000+0  14306-2 0  9999
2 46336  53.0529 111.4066 0001448  83.9110 276.2044 15.06452422167961
STARLINK-1750           
1 46337U 20062N   23257.01198505  .00022247  00000+0  15057-2 0  9997
2 46337  53.0540 111.3428 0001205  87.4673 272.6453 15.06449389167962
STARLINK-1752           
1 46338U 20062P   23256.92905618  .00022969  00000+0  15538-2 0  9993
2 46338  53.0541 131.7139 0000978 109.3310 250.7785 15.06449149167663
STARLINK-1759           
1 46340U 20062R   23257.08589500  .00025549  00000+0  16500-2 0  9999
2 46340  53.0550 130.8518 0001143  94.6253 265.4867 15.08106078167694
STARLINK-1760           
1 46341U 20062S   23256.90878094  .00020268  00000+0  13742-2 0  9997
2 46341  53.0537 111.8012 0001016 108.7248 251.3851 15.06438859167777
STARLINK-1762           
1 46342U 20062T   23257.02119766  .00023488  00000+0  15880-2 0  9998
2 46342  53.0533 131.3027 0001225  92.5887 267.5242 15.06458471167683
STARLINK-1764           
1 46343U 20062U   23257.01566321  .00020363  00000+0  13798-2 0  9996
2 46343  53.0535 111.3250 0001289  73.8744 286.2387 15.06458426167965
STARLINK-1765           
1 46344U 20062V   23256.90141313  .00020456  00000+0  13865-2 0  9992
2 46344  53.0539 111.8373 0001381  76.8475 283.2668 15.06444576167766
